{
  "type": "FeatureCollection",
  "name": "Thailand historical flood extents — approximate footprints",
  "description": "Approximate flood-affected area footprints for Thailand's major flood events. These are indicative polygons based on documented province-level impact reports and river-basin geography — NOT satellite-derived inundation masks. For planning reference only.",
  "features": [
    {
      "type": "Feature",
      "properties": {
        "id": "chaophraya-2011",
        "year": 2011,
        "name_th": "มหาอุทกภัยลุ่มเจ้าพระยา 2554",
        "name_en": "2011 Great Chao Phraya Flood",
        "months_th": "ก.ค.–ธ.ค. 2554",
        "months_en": "Jul–Dec 2011",
        "severity": "emergency",
        "provinces_th": "65 จังหวัด",
        "provinces_en": "65 provinces",
        "deaths": 813,
        "damage_usd_bn": 46,
        "fact_th": "ท่วม 65 จังหวัด เสียชีวิตกว่า 800 คน เสียหายราว 1.43 ล้านล้านบาท · ปีลานีญากำลังแรง คลื่นน้ำใช้เวลา ~2 เดือนจากภาคเหนือถึงกรุงเทพฯ",
        "fact_en": "65 provinces flooded, 800+ deaths, ~US$46bn damage · strong La Niña year; the wave took ~2 months to travel from the North to Bangkok"
      },
      "geometry": {
        "type": "Polygon",
        "coordinates": [[
          [99.50, 19.50], [100.00, 19.90], [100.10, 18.50], [100.60, 17.50],
          [100.50, 16.50], [100.85, 15.70], [100.55, 15.20], [100.80, 14.90],
          [100.55, 14.35], [100.70, 13.90], [100.55, 13.60], [100.45, 13.70],
          [99.90, 13.55], [99.60, 14.00], [99.50, 15.10], [99.40, 16.00],
          [99.55, 17.00], [99.40, 18.00], [99.50, 19.50]
        ]]
      }
    },
    {
      "type": "Feature",
      "properties": {
        "id": "south-2016-17",
        "year": 2017,
        "name_th": "น้ำท่วมภาคใต้ 2559–60",
        "name_en": "2016–17 Southern Floods",
        "months_th": "ธ.ค. 2559 – ม.ค. 2560",
        "months_en": "Dec 2016 – Jan 2017",
        "severity": "emergency",
        "provinces_th": "12 จังหวัดภาคใต้",
        "provinces_en": "12 southern provinces",
        "deaths": 96,
        "fact_th": "กระทบ 12 จังหวัดภาคใต้ ตัวอย่างคลาสสิกของน้ำท่วมมรสุมตะวันออกเฉียงเหนือ",
        "fact_en": "Hit 12 southern provinces — a canonical NE-monsoon flood event"
      },
      "geometry": {
        "type": "Polygon",
        "coordinates": [[
          [98.60, 10.50], [99.40, 10.60], [100.20, 10.20], [100.80, 9.80],
          [100.90, 8.80], [100.60, 7.90], [100.20, 7.50], [99.60, 7.70],
          [99.00, 8.20], [98.50, 8.80], [98.40, 9.60], [98.60, 10.50]
        ]]
      }
    },
    {
      "type": "Feature",
      "properties": {
        "id": "hatyai-2010",
        "year": 2010,
        "name_th": "น้ำท่วมหาดใหญ่ 2553",
        "name_en": "2010 Hat Yai Flood",
        "months_th": "พ.ย. 2553",
        "months_en": "Nov 2010",
        "severity": "warning",
        "provinces_th": "สงขลา · ปัตตานี · ยะลา",
        "provinces_en": "Songkhla · Pattani · Yala",
        "fact_th": "หาดใหญ่ท่วมซ้ำจากฝนมรสุม NE — ลุ่มน้ำเล็กลาดชัน น้ำมาเร็ว",
        "fact_en": "Hat Yai flooded again from NE-monsoon rain — small steep catchment, fast rise"
      },
      "geometry": {
        "type": "Polygon",
        "coordinates": [[
          [100.10, 7.30], [100.60, 7.35], [100.75, 7.00], [100.55, 6.80],
          [100.20, 6.85], [99.95, 7.05], [100.10, 7.30]
        ]]
      }
    },
    {
      "type": "Feature",
      "properties": {
        "id": "hatyai-2000",
        "year": 2000,
        "name_th": "น้ำท่วมหาดใหญ่ 2543",
        "name_en": "2000 Hat Yai Flood",
        "months_th": "พ.ย. 2543",
        "months_en": "Nov 2000",
        "severity": "emergency",
        "provinces_th": "สงขลา",
        "provinces_en": "Songkhla",
        "fact_th": "น้ำท่วมฉับพลันครั้งใหญ่ในลุ่มคลองอู่ตะเภา ช่วงมรสุมตะวันออกเฉียงเหนือ",
        "fact_en": "Major flash flood in the Khlong U-Taphao basin during the NE monsoon"
      },
      "geometry": {
        "type": "Polygon",
        "coordinates": [[
          [100.05, 7.30], [100.55, 7.30], [100.70, 7.00], [100.50, 6.75],
          [100.15, 6.80], [99.90, 7.00], [100.05, 7.30]
        ]]
      }
    },
    {
      "type": "Feature",
      "properties": {
        "id": "ubon-2019",
        "year": 2019,
        "name_th": "น้ำท่วมอุบลราชธานี 2562",
        "name_en": "2019 Ubon Ratchathani Flood",
        "months_th": "ก.ย. 2562",
        "months_en": "Sep 2019",
        "severity": "warning",
        "provinces_th": "อุบลราชธานี · ศรีสะเกษ · ยโสธร",
        "provinces_en": "Ubon Ratchathani · Sisaket · Yasothon",
        "fact_th": "จุดบรรจบชี-มูลท่วมนานจากพายุโพดุล-คาจิกิ + น้ำโขงหนุนกลับ",
        "fact_en": "The Chi–Mun confluence flooded for weeks from storms Podul & Kajiki plus Mekong backwater"
      },
      "geometry": {
        "type": "Polygon",
        "coordinates": [[
          [103.80, 16.20], [104.50, 16.10], [105.10, 15.60], [104.90, 14.90],
          [104.40, 14.70], [103.60, 14.90], [103.40, 15.60], [103.80, 16.20]
        ]]
      }
    },
    {
      "type": "Feature",
      "properties": {
        "id": "hatyai-2025",
        "year": 2025,
        "name_th": "น้ำท่วมหาดใหญ่ 2568",
        "name_en": "2025 Hat Yai Flood",
        "months_th": "ปลายปี 2568",
        "months_en": "late 2025",
        "severity": "emergency",
        "provinces_th": "สงขลา · ปัตตานี · นราธิวาส · ยะลา",
        "provinces_en": "Songkhla · Pattani · Narathiwat · Yala",
        "fact_th": "เหตุการณ์รุนแรงที่จุดประกายให้สร้าง FloodDash — มรสุมตะวันออกเฉียงเหนือ ฝนหนักต่อเนื่องในภาคใต้",
        "fact_en": "The devastating event that motivated FloodDash — NE monsoon, sustained heavy southern rain"
      },
      "geometry": {
        "type": "Polygon",
        "coordinates": [[
          [99.90, 7.35], [100.65, 7.40], [101.10, 7.00], [101.25, 6.60],
          [101.00, 6.30], [100.45, 6.35], [99.95, 6.65], [99.80, 7.05],
          [99.90, 7.35]
        ]]
      }
    }
  ]
}